{"type": "FeatureCollection", "features": [ {"type": "Feature", "properties": {"norad_id": 40697, "name": "SENTINEL-2A", "group": "resource", "lat": 49.1742104651121, "lon": 41.82575417830825, "alt_km": 783.9508645022306, "timestamp": "2025-12-05T05:43:14.771612+00:00", "meta": {"OBJECT_NAME": "SENTINEL-2A", "OBJECT_ID": "2015-028A", "EPOCH": "2025-12-04T17:44:24.103968", "MEAN_MOTION": 14.30822555, "ECCENTRICITY": 0.0001031, "INCLINATION": 98.5701, "RA_OF_ASC_NODE": 51.3858, "ARG_OF_PERICENTER": 93.736, "MEAN_ANOMALY": 266.394, "EPHEMERIS_TYPE": 0, "CLASSIFICATION_TYPE": "U", "NORAD_CAT_ID": 40697, "ELEMENT_SET_NO": 999, "REV_AT_EPOCH": 54592, "BSTAR": 0.00014392, "MEAN_MOTION_DOT": 3.34e-06, "MEAN_MOTION_DDOT": 0}, "tle": {"line1": "1 40697U 15028A   25338.73916787  .00000334  00000+0  14392-3 0  9992", "line2": "2 40697  98.5701  51.3858 0001031  93.7360 266.3940 14.30822555545921"}}, "geometry": {"type": "Point", "coordinates": [41.82575417830825, 49.1742104651121]}}, {"type": "Feature", "properties": {"norad_id": 40701, "name": "GAOFEN-8", "group": "resource", "lat": 75.15090556589878, "lon": 126.3717775480239, "alt_km": 443.9799918433837, "timestamp": "2025-12-05T05:43:14.771622+00:00", "meta": {"OBJECT_NAME": "GAOFEN-8", "OBJECT_ID": "2015-030A", "EPOCH": "2025-12-04T18:27:23.352192", "MEAN_MOTION": 15.38141302, "ECCENTRICITY": 0.001127, "INCLINATION": 97.6906, "RA_OF_ASC_NODE": 156.5234, "ARG_OF_PERICENTER": 166.001, "MEAN_ANOMALY": 194.1549, "EPHEMERIS_TYPE": 0, "CLASSIFICATION_TYPE": "U", "NORAD_CAT_ID": 40701, "ELEMENT_SET_NO": 999, "REV_AT_EPOCH": 58148, "BSTAR": 0.00087907, "MEAN_MOTION_DOT": 0.00033095, "MEAN_MOTION_DDOT": 0}, "tle": {"line1": "1 40701U 15030A   25338.76902028  .00033095  00000+0  87907-3 0  9999", "line2": "2 40701  97.6906 156.5234 0011270 166.0010 194.1549 15.38141302581489"}}, "geometry": {"type": "Point", "coordinates": [126.3717775480239, 75.15090556589878]}}, {"type": "Feature", "properties": {"norad_id": 40718, "name": "CARBONITE 1 (CBNT-1)", "group": "resource", "lat": 67.80930657674838, "lon": 141.40079038771117, "alt_km": 621.445011564012, "timestamp": "2025-12-05T05:43:14.771632+00:00", "meta": {"OBJECT_NAME": "CARBONITE 1 (CBNT-1)", "OBJECT_ID": "2015-032D", "EPOCH": "2025-12-04T18:04:17.981760", "MEAN_MOTION": 14.82684987, "ECCENTRICITY": 0.0013912, "INCLINATION": 97.6398, "RA_OF_ASC_NODE": 160.149, "ARG_OF_PERICENTER": 208.334, "MEAN_ANOMALY": 151.7119, "EPHEMERIS_TYPE": 0, "CLASSIFICATION_TYPE": "U", "NORAD_CAT_ID": 40718, "ELEMENT_SET_NO": 999, "REV_AT_EPOCH": 56052, "BSTAR": 0.00060721, "MEAN_MOTION_DOT": 4.856e-05, "MEAN_MOTION_DDOT": 0}, "tle": {"line1": "1 40718U 15032D   25338.75298590  .00004856  00000+0  60721-3 0  9998", "line2": "2 40718  97.6398 160.1490 0013912 208.3340 151.7119 14.82684987560521"}}, "geometry": {"type": "Point", "coordinates": [141.40079038771117, 67.80930657674838]}}, {"type": "Feature", "properties": {"norad_id": 40878, "name": "YAOGAN-27", "group": "resource", "lat": -57.836249843922154, "lon": -14.336762636832672, "alt_km": 1200.9572724287837, "timestamp": "2025-12-05T05:43:14.771642+00:00", "meta": {"OBJECT_NAME": "YAOGAN-27", "OBJECT_ID": "2015-040A", "EPOCH": "2025-12-04T19:04:26.737824", "MEAN_MOTION": 13.1605972, "ECCENTRICITY": 0.0007718, "INCLINATION": 100.1005, "RA_OF_ASC_NODE": 328.7744, "ARG_OF_PERICENTER": 306.2953, "MEAN_ANOMALY": 53.7448, "EPHEMERIS_TYPE": 0, "CLASSIFICATION_TYPE": "U", "NORAD_CAT_ID": 40878, "ELEMENT_SET_NO": 999, "REV_AT_EPOCH": 49209, "BSTAR": 9.6059e-05, "MEAN_MOTION_DOT": -6e-08, "MEAN_MOTION_DDOT": 0}, "tle": {"line1": "1 40878U 15040A   25338.79475391 -.00000006  00000+0  96059-4 0  9992", "line2": "2 40878 100.1005 328.7744 0007718 306.2953  53.7448 13.16059720492091"}}, "geometry": {"type": "Point", "coordinates": [-14.336762636832672, -57.836249843922154]}}, {"type": "Feature", "properties": {"norad_id": 40894, "name": "GAOFEN-9 01", "group": "resource", "lat": -2.006840115940928, "lon": 18.788121923175087, "alt_km": 614.8652383698136, "timestamp": "2025-12-05T05:43:14.771652+00:00", "meta": {"OBJECT_NAME": "GAOFEN-9 01", "OBJECT_ID": "2015-047A", "EPOCH": "2025-12-04T18:23:23.568864", "MEAN_MOTION": 14.82391385, "ECCENTRICITY": 0.0028884, "INCLINATION": 97.6553, "RA_OF_ASC_NODE": 18.0663, "ARG_OF_PERICENTER": 59.4868, "MEAN_ANOMALY": 300.9192, "EPHEMERIS_TYPE": 0, "CLASSIFICATION_TYPE": "U", "NORAD_CAT_ID": 40894, "ELEMENT_SET_NO": 999, "REV_AT_EPOCH": 55138, "BSTAR": 0.00033438, "MEAN_MOTION_DOT": 2.646e-05, "MEAN_MOTION_DDOT": 0}, "tle": {"line1": "1 40894U 15047A   25338.76624501  .00002646  00000+0  33438-3 0  9995", "line2": "2 40894  97.6553  18.0663 0028884  59.4868 300.9192 14.82391385551386"}}, "geometry": {"type": "Point", "coordinates": [18.788121923175087, -2.006840115940928]}}, {"type": "Feature", "properties": {"norad_id": 41026, "name": "YAOGAN-28", "group": "resource", "lat": 76.44477602237812, "lon": -30.734830517562578, "alt_km": 480.7345617898509, "timestamp": "2025-12-05T05:43:14.771662+00:00", "meta": {"OBJECT_NAME": "YAOGAN-28", "OBJECT_ID": "2015-064A", "EPOCH": "2025-12-04T18:14:51.069984", "MEAN_MOTION": 15.24142058, "ECCENTRICITY": 0.0012026, "INCLINATION": 97.2801, "RA_OF_ASC_NODE": 116.7794, "ARG_OF_PERICENTER": 152.5608, "MEAN_ANOMALY": 207.6267, "EPHEMERIS_TYPE": 0, "CLASSIFICATION_TYPE": "U", "NORAD_CAT_ID": 41026, "ELEMENT_SET_NO": 999, "REV_AT_EPOCH": 56103, "BSTAR": 0.00074027, "MEAN_MOTION_DOT": 0.00017999, "MEAN_MOTION_DDOT": 0}, "tle": {"line1": "1 41026U 15064A   25338.76031331  .00017999  00000+0  74027-3 0  9991", "line2": "2 41026  97.2801 116.7794 0012026 152.5608 207.6267 15.24142058561032"}}, "geometry": {"type": "Point", "coordinates": [-30.734830517562578, 76.44477602237812]}}, {"type": "Feature", "properties": {"norad_id": 41038, "name": "YAOGAN-29", "group": "resource", "lat": -52.671618788755865, "lon": 171.72747256465956, "alt_km": 627.5457066410027, "timestamp": "2025-12-05T05:43:14.771672+00:00", "meta": {"OBJECT_NAME": "YAOGAN-29", "OBJECT_ID": "2015-069A", "EPOCH": "2025-12-04T18:57:17.189856", "MEAN_MOTION": 14.82869169, "ECCENTRICITY": 6.59e-05, "INCLINATION": 98.0227, "RA_OF_ASC_NODE": 1.9357, "ARG_OF_PERICENTER": 2.1038, "MEAN_ANOMALY": 358.0178, "EPHEMERIS_TYPE": 0, "CLASSIFICATION_TYPE": "U", "NORAD_CAT_ID": 41038, "ELEMENT_SET_NO": 999, "REV_AT_EPOCH": 54181, "BSTAR": 0.00012541, "MEAN_MOTION_DOT": 9.62e-06, "MEAN_MOTION_DDOT": 0}, "tle": {"line1": "1 41038U 15069A   25338.78978229  .00000962  00000+0  12541-3 0  9992", "line2": "2 41038  98.0227   1.9357 0000659   2.1038 358.0178 14.82869169541810"}}, "geometry": {"type": "Point", "coordinates": [171.72747256465956, -52.671618788755865]}}, {"type": "Feature", "properties": {"norad_id": 41167, "name": "KENT RIDGE 1", "group": "resource", "lat": 5.196355748394403, "lon": -73.31020378755547, "alt_km": 491.7926632924991, "timestamp": "2025-12-05T05:43:14.771681+00:00", "meta": {"OBJECT_NAME": "KENT RIDGE 1", "OBJECT_ID": "2015-077B", "EPOCH": "2025-12-04T13:53:53.103840", "MEAN_MOTION": 15.21536825, "ECCENTRICITY": 0.0008627, "INCLINATION": 14.9803, "RA_OF_ASC_NODE": 271.6913, "ARG_OF_PERICENTER": 15.1583, "MEAN_ANOMALY": 344.8997, "EPHEMERIS_TYPE": 0, "CLASSIFICATION_TYPE": "U", "NORAD_CAT_ID": 41167, "ELEMENT_SET_NO": 999, "REV_AT_EPOCH": 55139, "BSTAR": 0.00034598, "MEAN_MOTION_DOT": 8.804e-05, "MEAN_MOTION_DDOT": 0}, "tle": {"line1": "1 41167U 15077B   25338.57908685  .00008804  00000+0  34598-3 0  9999", "line2": "2 41167  14.9803 271.6913 0008627  15.1583 344.8997 15.21536825551396"}}, "geometry": {"type": "Point", "coordinates": [-73.31020378755547, 5.196355748394403]}}, {"type": "Feature", "properties": {"norad_id": 41194, "name": "GAOFEN-4", "group": "resource", "lat": -0.038123539372641735, "lon": -94.16983470251256, "alt_km": 35782.965716286584, "timestamp": "2025-12-05T05:43:14.771695+00:00", "meta": {"OBJECT_NAME": "GAOFEN-4", "OBJECT_ID": "2015-083A", "EPOCH": "2025-12-04T17:39:12.040992", "MEAN_MOTION": 1.00272933, "ECCENTRICITY": 0.0003689, "INCLINATION": 0.1487, "RA_OF_ASC_NODE": 80.8427, "ARG_OF_PERICENTER": 105.3888, "MEAN_ANOMALY": 258.066, "EPHEMERIS_TYPE": 0, "CLASSIFICATION_TYPE": "U", "NORAD_CAT_ID": 41194, "ELEMENT_SET_NO": 999, "REV_AT_EPOCH": 3658, "BSTAR": 0, "MEAN_MOTION_DOT": -3.21e-06, "MEAN_MOTION_DDOT": 0}, "tle": {"line1": "1 41194U 15083A   25338.73555603 -.00000321  00000+0  00000+0 0  9996", "line2": "2 41194   0.1487  80.8427 0003689 105.3888 258.0660  1.00272933 36585"}}, "geometry": {"type": "Point", "coordinates": [-94.16983470251256, -0.038123539372641735]}}, {"type": "Feature", "properties": {"norad_id": 41240, "name": "JASON-3", "group": "resource", "lat": 63.08076791529725, "lon": -67.5369392172579, "alt_km": 1309.2894221520419, "timestamp": "2025-12-05T05:43:14.771706+00:00", "meta": {"OBJECT_NAME": "JASON-3", "OBJECT_ID": "2016-002A", "EPOCH": "2025-12-04T16:08:27.386016", "MEAN_MOTION": 12.87626112, "ECCENTRICITY": 0.0007136, "INCLINATION": 66.0392, "RA_OF_ASC_NODE": 174.785, "ARG_OF_PERICENTER": 270.3157, "MEAN_ANOMALY": 89.7044, "EPHEMERIS_TYPE": 0, "CLASSIFICATION_TYPE": "U", "NORAD_CAT_ID": 41240, "ELEMENT_SET_NO": 999, "REV_AT_EPOCH": 46220, "BSTAR": 0.00016946, "MEAN_MOTION_DOT": -1.9e-07, "MEAN_MOTION_DDOT": 0}, "tle": {"line1": "1 41240U 16002A   25338.67253919 -.00000019  00000+0  16946-3 0  9992", "line2": "2 41240  66.0392 174.7850 0007136 270.3157  89.7044 12.87626112462205"}}, "geometry": {"type": "Point", "coordinates": [-67.5369392172579, 63.08076791529725]}}]}